NORAD_CAT_ID,OBJECT_NAME,OBJECT_TYPE,EPOCH,MEAN_MOTION,ECCENTRICITY,INCLINATION,RA_OF_ASC_NODE,ARG_OF_PERICENTER,MEAN_ANOMALY,BSTAR,MEAN_MOTION_DOT,MEAN_MOTION_DDOT,TLE_LINE0,TLE_LINE1,TLE_LINE2,SEMIMAJOR_AXIS,PERIOD,APOGEE,PERIGEE,DECAYED
53898.0,STARLINK-5044,PAYLOAD,2023-01-13 22:25:51,15.08823844,0.0002504999999999,53.2174,89.77,30.3061,329.8076,-0.00015218,-2.709e-05,0.0,0 STARLINK-5044,1 53898U 22119N   23013.93462876 -.00002709  00000-0 -15218-3 0  9992,2 53898  53.2174  89.7700 0002505  30.3061 329.8076 15.08823844 17548,6917.93,95.439,541.528,538.062,0.0
53898.0,STARLINK-5044,PAYLOAD,2023-01-14 12:44:19,15.08832975,0.0002506999999999,53.2188,87.0949,33.5972,326.5179,-4.6234e-05,-1.024e-05,0.0,0 STARLINK-5044,1 53898U 22119N   23014.53078520 -.00001024  00000-0 -46234-4 0  9990,2 53898  53.2188  87.0949 0002507  33.5972 326.5179 15.08832975 17630,6917.901999999999,95.438,541.501,538.033,0.0
53898.0,STARLINK-5044,PAYLOAD,2023-01-15 04:38:11,15.08822904,0.0002641,53.2182,84.1234,34.319,325.7973,5.7864e-05,6.32e-06,0.0,0 STARLINK-5044,1 53898U 22119N   23015.19319410  .00000632  00000-0  57864-4 0  9992,2 53898  53.2182  84.1234 0002641  34.3190 325.7973 15.08822904 17734,6917.933000000001,95.439,541.625,537.971,0.0
53898.0,STARLINK-5044,PAYLOAD,2023-01-16 10:50:29,15.08858511,0.0002273,53.2185,78.4717,45.8973,314.2205,0.00021994,3.216e-05,0.0,0 STARLINK-5044,1 53898U 22119N   23016.45172913  .00003216  00000-0  21994-3 0  9992,2 53898  53.2185  78.4717 0002273  45.8973 314.2205 15.08858511 17921,6917.8240000000005,95.436,541.261,538.116,0.0
53898.0,STARLINK-5044,PAYLOAD,2023-01-16 20:22:50,15.08830374,0.0002468,53.2178,76.6894,44.7795,315.3396,-3.6747e-05,-8.73e-06,0.0,0 STARLINK-5044,1 53898U 22119N   23016.84919611 -.00000873  00000-0 -36747-4 0  9990,2 53898  53.2178  76.6894 0002468  44.7795 315.3396 15.08830374 18409,6917.91,95.438,541.482,538.067,0.0
53898.0,STARLINK-5044,PAYLOAD,2023-01-17 04:19:48,15.08803053,0.0002154,53.2184,75.2034,46.7109,313.4063,-0.00024036,-4.108e-05,0.0,0 STARLINK-5044,1 53898U 22119N   23017.18042331 -.00004108  00000-0 -24036-3 0  9996,2 53898  53.2184  75.2034 0002154  46.7109 313.4063 15.08803053 18033,6917.993,95.44,541.3480000000001,538.368,0.0
53898.0,STARLINK-5044,PAYLOAD,2023-01-17 10:41:20,15.08813293,0.0002109999999999,53.2177,74.0126,41.7303,318.385,-0.000147,-2.625e-05,0.0,0 STARLINK-5044,1 53898U 22119N   23017.44537768 -.00002625  00000-0 -14700-3 0  9997,2 53898  53.2177  74.0126 0002110  41.7303 318.3850 15.08813293 18076,6917.962,95.439,541.2869999999999,538.367,0.0
53898.0,STARLINK-5044,PAYLOAD,2023-01-17 23:24:24,15.08839997,0.0001879,53.2186,71.6329,53.2263,306.8901,-0.00019717,-3.425e-05,0.0,0 STARLINK-5044,1 53898U 22119N   23017.97528624 -.00003425  00000-0 -19717-3 0  9998,2 53898  53.2186  71.6329 0001879  53.2263 306.8901 15.08839997 18155,6917.88,95.438,541.045,538.446,0.0
53898.0,STARLINK-5044,PAYLOAD,2023-01-18 10:32:04,15.08860786,0.0001896,53.2199,69.5568,85.125,274.9959,-5.2451e-05,-1.123e-05,0.0,0 STARLINK-5044,1 53898U 22119N   23018.43894609 -.00001123  00000-0 -52451-4 0  9995,2 53898  53.2199  69.5568 0001896  85.1250 274.9959 15.08860786 18225,6917.816999999999,95.436,540.993,538.37,0.0
53898.0,STARLINK-5044,PAYLOAD,2023-01-19 07:12:06,15.08829962,0.0001699,53.2198,65.6884,56.0593,304.0561,0.000308,4.616e-05,0.0,0 STARLINK-5044,1 53898U 22119N   23019.30007235  .00004616  00000-0  30800-3 0  9994,2 53898  53.2198  65.6884 0001699  56.0593 304.0561 15.08829962 18359,6917.911,95.438,540.951,538.601,0.0
53898.0,STARLINK-5044,PAYLOAD,2023-01-19 11:58:15,15.08844169,0.0001816,53.2192,64.7949,56.8184,303.2982,0.00027699,4.123e-05,0.0,0 STARLINK-5044,1 53898U 22119N   23019.49878483  .00004123  00000-0  27699-3 0  9990,2 53898  53.2192  64.7949 0001816  56.8184 303.2982 15.08844169 18804,6917.868,95.437,540.989,538.476,0.0
53898.0,STARLINK-5044,PAYLOAD,2023-01-20 10:13:40,15.08839444,0.0002015,53.2193,60.633,84.8423,275.2799,-0.00010659,-1.984e-05,0.0,0 STARLINK-5044,1 53898U 22119N   23020.42616206 -.00001984  00000-0 -10659-3 0  9990,2 53898  53.2193  60.6330 0002015  84.8423 275.2799 15.08839444 18526,6917.882,95.438,541.141,538.3530000000001,0.0
53898.0,STARLINK-5044,PAYLOAD,2023-01-21 08:29:03,15.0884851,0.00018,53.2194,56.4682,80.2571,279.8625,-2.8300000000000003e-05,-7.39e-06,0.0,0 STARLINK-5044,1 53898U 22119N   23021.35351316 -.00000739  00000-0 -28300-4 0  9991,2 53898  53.2194  56.4682 0001800  80.2571 279.8625 15.08848510 18662,6917.854,95.437,540.965,538.474,0.0
53898.0,STARLINK-5044,PAYLOAD,2023-01-22 11:30:34,15.08862115,0.0001633,53.2188,51.4101,94.64,265.4779,0.00016608,2.358e-05,0.0,0 STARLINK-5044,1 53898U 22119N   23022.47956768  .00002358  00000-0  16608-3 0  9991,2 53898  53.2188  51.4101 0001633  94.6400 265.4779 15.08862115 18837,6917.813,95.436,540.807,538.548,0.0
53898.0,STARLINK-5044,PAYLOAD,2023-01-22 19:27:32,15.08833589,0.0001584,53.2181,49.9279,78.9871,281.13,-2.893e-05,-7.48e-06,0.0,0 STARLINK-5044,1 53898U 22119N   23022.81079092 -.00000748  00000-0 -28930-4 0  9990,2 53898  53.2181  49.9279 0001584  78.9871 281.1300 15.08833589 18883,6917.9,95.438,540.861,538.669,0.0
53898.0,STARLINK-5044,PAYLOAD,2023-01-23 01:49:05,15.08824923,0.0002076,53.2168,48.7377,91.1946,268.9284,-0.00010424,-1.946e-05,0.0,0 STARLINK-5044,1 53898U 22119N   23023.07576167 -.00001946  00000-0 -10424-3 0  9993,2 53898  53.2168  48.7377 0002076  91.1946 268.9284 15.08824923 18922,6917.926,95.439,541.2280000000001,538.355,0.0
53898.0,STARLINK-5044,PAYLOAD,2023-01-24 11:12:10,15.08846947,0.0001927,53.2193,42.4898,110.0412,250.0788,-0.00014163,-2.542e-05,0.0,0 STARLINK-5044,1 53898U 22119N   23024.46679369 -.00002542  00000-0 -14163-3 0  9992,2 53898  53.2193  42.4898 0001927 110.0412 250.0788 15.08846947 19137,6917.859,95.437,541.057,538.391,0.0
53898.0,STARLINK-5044,PAYLOAD,2023-01-25 01:30:40,15.08813779,0.000164,53.2196,39.8175,106.5326,253.5846,7.9508e-05,9.77e-06,0.0,0 STARLINK-5044,1 53898U 22119N   23025.06297035  .00000977  00000-0  79508-4 0  9998,2 53898  53.2196  39.8175 0001640 106.5326 253.5846 15.08813779 19224,6917.960999999999,95.439,540.96,538.691,0.0
53898.0,STARLINK-5044,PAYLOAD,2023-01-25 07:52:12,15.08822171,0.0001629,53.2194,38.6291,104.5728,255.5445,0.00014511,2.021e-05,0.0,0 STARLINK-5044,1 53898U 22119N   23025.32792631  .00002021  00000-0  14511-3 0  9993,2 53898  53.2194  38.6291 0001629 104.5728 255.5445 15.08822171 19266,6917.935,95.439,540.927,538.673,0.0
53898.0,STARLINK-5044,PAYLOAD,2023-01-25 17:24:31,15.08830077,0.0001546,53.2192,36.8452,100.5297,259.5869,8.313899999999999e-05,1.035e-05,0.0,0 STARLINK-5044,1 53898U 22119N   23025.72536673  .00001035  00000-0  83139-4 0  9996,2 53898  53.2192  36.8452 0001546 100.5297 259.5869 15.08830077 19749,6917.911,95.438,540.845,538.706,0.0
53898.0,STARLINK-5044,PAYLOAD,2023-01-26 01:21:27,15.08846794,0.0001909,53.2185,35.3591,121.5413,238.5766,-0.0001631999999999,-2.885e-05,0.0,0 STARLINK-5044,1 53898U 22119N   23026.05657036 -.00002885  00000-0 -16320-3 0  9993,2 53898  53.2185  35.3591 0001909 121.5413 238.5766 15.08846794 19370,6917.86,95.437,541.045,538.404,0.0
53898.0,STARLINK-5044,PAYLOAD,2023-01-26 07:42:59,15.08840125,0.000172,53.2194,34.17,111.3819,248.7357,7.7914e-06,-1.64e-06,0.0,0 STARLINK-5044,1 53898U 22119N   23026.32152704 -.00000164  00000-0  77914-5 0  9990,2 53898  53.2194  34.1700 0001720 111.3819 248.7357 15.08840125 19839,6917.88,95.438,540.935,538.555,0.0
53898.0,STARLINK-5044,PAYLOAD,2023-01-27 07:33:47,15.08837075,0.0001501,53.2189,29.7074,104.8961,255.2197,5.3192e-05,5.59e-06,0.0,0 STARLINK-5044,1 53898U 22119N   23027.31512923  .00000559  00000-0  53192-4 0  9991,2 53898  53.2189  29.7074 0001501 104.8961 255.2197 15.08837075 19564,6917.889,95.438,540.793,538.716,0.0
53898.0,STARLINK-5044,PAYLOAD,2023-01-28 07:24:34,15.08840667,0.0001439,53.2192,25.2462,96.8572,263.2583,3.3854e-05,2.51e-06,0.0,0 STARLINK-5044,1 53898U 22119N   23028.30872896  .00000251  00000-0  33854-4 0  9991,2 53898  53.2192  25.2462 0001439  96.8572 263.2583 15.08840667 20132,6917.878,95.438,540.739,538.748,0.0
53898.0,STARLINK-5044,PAYLOAD,2023-01-29 08:50:44,15.08843161,0.0001447,53.2197,20.4864,89.7285,270.3873,1.9555e-05,2.3e-07,0.0,0 STARLINK-5044,1 53898U 22119N   23029.36856742  .00000023  00000-0  19555-4 0  9999,2 53898  53.2197  20.4864 0001447  89.7285 270.3873 15.08843161 19873,6917.871,95.437,540.737,538.735,0.0
53898.0,STARLINK-5044,PAYLOAD,2023-01-30 08:41:31,15.08845007,0.0001473,53.2199,16.0259,97.8373,262.2786,3.3288e-05,2.42e-06,0.0,0 STARLINK-5044,1 53898U 22119N   23030.36216478  .00000242  00000-0  33288-4 0  9999,2 53898  53.2199  16.0259 0001473  97.8373 262.2786 15.08845007 20440,6917.865,95.437,540.749,538.711,0.0
53898.0,STARLINK-5044,PAYLOAD,2023-01-31 02:10:45,15.08841068,0.0001354,53.2195,12.756,96.9153,263.1993,-2.5354e-05,-6.91e-06,0.0,0 STARLINK-5044,1 53898U 22119N   23031.09080811 -.00000691  00000-0 -25354-4 0  9995,2 53898  53.2195  12.7560 0001354  96.9153 263.1993 15.08841068 20137,6917.877,95.437,540.679,538.805,0.0
53898.0,STARLINK-5044,PAYLOAD,2023-01-31 08:32:18,15.08844608,0.0001396,53.2197,11.5673,84.2915,275.8236,-2.4519e-05,-6.78e-06,0.0,0 STARLINK-5044,1 53898U 22119N   23031.35576572 -.00000678  00000-0 -24519-4 0  9995,2 53898  53.2197  11.5673 0001396  84.2915 275.8236 15.08844608 20596,6917.866,95.437,540.697,538.766,0.0
53898.0,STARLINK-5044,PAYLOAD,2023-01-31 22:50:46,15.08841151,0.0001495,53.2198,8.8896,109.2338,250.8816,-3.6717e-05,-8.72e-06,0.0,0 STARLINK-5044,1 53898U 22119N   23031.95192691 -.00000872  00000-0 -36717-4 0  9996,2 53898  53.2198   8.8896 0001495 109.2338 250.8816 15.08841151 20687,6917.877,95.437,540.776,538.708,0.0
